{"type": "FeatureCollection", "features": [ {"type": "Feature", "properties": {"norad_id": 33980, "name": "COSMOS 2251 DEB", "group": "cosmos-2251-debris", "lat": -25.83540352945341, "lon": 60.151725450656905, "alt_km": 712.9499099319328, "timestamp": "2025-12-08T03:50:07.389325+00:00", "meta": {"OBJECT_NAME": "COSMOS 2251 DEB", "OBJECT_ID": "1993-036FP", "EPOCH": "2025-12-07T00:46:15.540384", "MEAN_MOTION": 14.58592195, "ECCENTRICITY": 0.00290062, "INCLINATION": 74.0221, "RA_OF_ASC_NODE": 70.2738, "ARG_OF_PERICENTER": 216.3967, "MEAN_ANOMALY": 317.4768, "EPHEMERIS_TYPE": 0, "CLASSIFICATION_TYPE": "U", "NORAD_CAT_ID": 33980, "ELEMENT_SET_NO": 999, "REV_AT_EPOCH": 88711, "BSTAR": 0.0012864019, "MEAN_MOTION_DOT": 5.997e-05, "MEAN_MOTION_DDOT": 0}, "tle": {"line1": "1 33980U 93036FP  25341.03212431  .00005997  00000+0  12864-2 0  9997", "line2": "2 33980  74.0221  70.2738 0029006 216.3967 317.4768 14.58592195887119"}}, "geometry": {"type": "Point", "coordinates": [60.151725450656905, -25.83540352945341]}}, {"type": "Feature", "properties": {"norad_id": 33982, "name": "COSMOS 2251 DEB", "group": "cosmos-2251-debris", "lat": 16.656381699372524, "lon": -176.23946904454257, "alt_km": 708.8321937789442, "timestamp": "2025-12-08T03:50:07.389335+00:00", "meta": {"OBJECT_NAME": "COSMOS 2251 DEB", "OBJECT_ID": "1993-036FR", "EPOCH": "2025-12-07T02:34:27.139584", "MEAN_MOTION": 14.60180694, "ECCENTRICITY": 0.00749076, "INCLINATION": 74.0709, "RA_OF_ASC_NODE": 10.6663, "ARG_OF_PERICENTER": 56.8187, "MEAN_ANOMALY": 334.299, "EPHEMERIS_TYPE": 0, "CLASSIFICATION_TYPE": "U", "NORAD_CAT_ID": 33982, "ELEMENT_SET_NO": 999, "REV_AT_EPOCH": 89077, "BSTAR": 0.00059293778, "MEAN_MOTION_DOT": 2.942e-05, "MEAN_MOTION_DDOT": 0}, "tle": {"line1": "1 33982U 93036FR  25341.10725856  .00002942  00000+0  59294-3 0  9993", "line2": "2 33982  74.0709  10.6663 0074907  56.8187 334.2990 14.60180694890778"}}, "geometry": {"type": "Point", "coordinates": [-176.23946904454257, 16.656381699372524]}}, {"type": "Feature", "properties": {"norad_id": 33983, "name": "COSMOS 2251 DEB", "group": "cosmos-2251-debris", "lat": -65.23742451427589, "lon": 13.967410077561764, "alt_km": 715.3745888158801, "timestamp": "2025-12-08T03:50:07.389345+00:00", "meta": {"OBJECT_NAME": "COSMOS 2251 DEB", "OBJECT_ID": "1993-036FS", "EPOCH": "2025-12-07T05:59:18.916800", "MEAN_MOTION": 14.50635593, "ECCENTRICITY": 0.00214107, "INCLINATION": 74.0489, "RA_OF_ASC_NODE": 157.3571, "ARG_OF_PERICENTER": 260.9351, "MEAN_ANOMALY": 278.0407, "EPHEMERIS_TYPE": 0, "CLASSIFICATION_TYPE": "U", "NORAD_CAT_ID": 33983, "ELEMENT_SET_NO": 999, "REV_AT_EPOCH": 88549, "BSTAR": 0.00089139162, "MEAN_MOTION_DOT": 3.483e-05, "MEAN_MOTION_DDOT": 0}, "tle": {"line1": "1 33983U 93036FS  25341.24952450  .00003483  00000+0  89139-3 0  9993", "line2": "2 33983  74.0489 157.3571 0021410 260.9351 278.0407 14.50635593885496"}}, "geometry": {"type": "Point", "coordinates": [13.967410077561764, -65.23742451427589]}}, {"type": "Feature", "properties": {"norad_id": 33984, "name": "COSMOS 2251 DEB", "group": "cosmos-2251-debris", "lat": 72.09883511262453, "lon": 113.35059553764967, "alt_km": 667.6024581396096, "timestamp": "2025-12-08T03:50:07.389355+00:00", "meta": {"OBJECT_NAME": "COSMOS 2251 DEB", "OBJECT_ID": "1993-036FT", "EPOCH": "2025-12-07T07:50:31.522272", "MEAN_MOTION": 14.66291352, "ECCENTRICITY": 0.00234348, "INCLINATION": 74.0091, "RA_OF_ASC_NODE": 357.5534, "ARG_OF_PERICENTER": 197.0291, "MEAN_ANOMALY": 185.7531, "EPHEMERIS_TYPE": 0, "CLASSIFICATION_TYPE": "U", "NORAD_CAT_ID": 33984, "ELEMENT_SET_NO": 999, "REV_AT_EPOCH": 88987, "BSTAR": 0.0012961332, "MEAN_MOTION_DOT": 7.154e-05, "MEAN_MOTION_DDOT": 0}, "tle": {"line1": "1 33984U 93036FT  25341.32675373  .00007154  00000+0  12961-2 0  9996", "line2": "2 33984  74.0091 357.5534 0023434 197.0291 185.7531 14.66291352889876"}}, "geometry": {"type": "Point", "coordinates": [113.35059553764967, 72.09883511262453]}}, {"type": "Feature", "properties": {"norad_id": 33986, "name": "COSMOS 2251 DEB", "group": "cosmos-2251-debris", "lat": 49.85858239981303, "lon": 111.33828842467453, "alt_km": 749.1371762460103, "timestamp": "2025-12-08T03:50:07.389365+00:00", "meta": {"OBJECT_NAME": "COSMOS 2251 DEB", "OBJECT_ID": "1993-036FV", "EPOCH": "2025-12-07T00:56:13.645248", "MEAN_MOTION": 14.43158031, "ECCENTRICITY": 0.00401584, "INCLINATION": 74.0367, "RA_OF_ASC_NODE": 313.2605, "ARG_OF_PERICENTER": 27.3202, "MEAN_ANOMALY": 39.066, "EPHEMERIS_TYPE": 0, "CLASSIFICATION_TYPE": "U", "NORAD_CAT_ID": 33986, "ELEMENT_SET_NO": 999, "REV_AT_EPOCH": 87946, "BSTAR": 0.00132409, "MEAN_MOTION_DOT": 4.468e-05, "MEAN_MOTION_DDOT": 0}, "tle": {"line1": "1 33986U 93036FV  25341.03904682  .00004468  00000+0  13241-2 0  9991", "line2": "2 33986  74.0367 313.2605 0040158  27.3202  39.0660 14.43158031879460"}}, "geometry": {"type": "Point", "coordinates": [111.33828842467453, 49.85858239981303]}}, {"type": "Feature", "properties": {"norad_id": 33990, "name": "COSMOS 2251 DEB", "group": "cosmos-2251-debris", "lat": -73.91946208114999, "lon": -156.7724503241106, "alt_km": 856.8209081143632, "timestamp": "2025-12-08T03:50:07.389375+00:00", "meta": {"OBJECT_NAME": "COSMOS 2251 DEB", "OBJECT_ID": "1993-036FZ", "EPOCH": "2025-12-07T03:25:13.252800", "MEAN_MOTION": 13.49966237, "ECCENTRICITY": 0.04076061, "INCLINATION": 73.9286, "RA_OF_ASC_NODE": 294.9803, "ARG_OF_PERICENTER": 316.2952, "MEAN_ANOMALY": 54.7655, "EPHEMERIS_TYPE": 0, "CLASSIFICATION_TYPE": "U", "NORAD_CAT_ID": 33990, "ELEMENT_SET_NO": 999, "REV_AT_EPOCH": 82654, "BSTAR": 0.0024920625, "MEAN_MOTION_DOT": 2.632e-05, "MEAN_MOTION_DDOT": 0}, "tle": {"line1": "1 33990U 93036FZ  25341.14251450  .00002632  00000+0  24921-2 0  9994", "line2": "2 33990  73.9286 294.9803 0407606 316.2952  54.7655 13.49966237826544"}}, "geometry": {"type": "Point", "coordinates": [-156.7724503241106, -73.91946208114999]}}, {"type": "Feature", "properties": {"norad_id": 33992, "name": "COSMOS 2251 DEB", "group": "cosmos-2251-debris", "lat": -35.50056079168357, "lon": -25.220223285632915, "alt_km": 708.3220848684623, "timestamp": "2025-12-08T03:50:07.389385+00:00", "meta": {"OBJECT_NAME": "COSMOS 2251 DEB", "OBJECT_ID": "1993-036GB", "EPOCH": "2025-12-07T00:18:02.215296", "MEAN_MOTION": 14.66145742, "ECCENTRICITY": 0.00516315, "INCLINATION": 74.024, "RA_OF_ASC_NODE": 348.7828, "ARG_OF_PERICENTER": 108.4844, "MEAN_ANOMALY": 281.783, "EPHEMERIS_TYPE": 0, "CLASSIFICATION_TYPE": "U", "NORAD_CAT_ID": 33992, "ELEMENT_SET_NO": 999, "REV_AT_EPOCH": 89041, "BSTAR": 0.0011124141, "MEAN_MOTION_DOT": 6.212e-05, "MEAN_MOTION_DDOT": 0}, "tle": {"line1": "1 33992U 93036GB  25341.01252564  .00006212  00000+0  11124-2 0  9998", "line2": "2 33992  74.0240 348.7828 0051631 108.4844 281.7830 14.66145742890411"}}, "geometry": {"type": "Point", "coordinates": [-25.220223285632915, -35.50056079168357]}}, {"type": "Feature", "properties": {"norad_id": 33994, "name": "COSMOS 2251 DEB", "group": "cosmos-2251-debris", "lat": -66.81465292570915, "lon": 156.9670955892073, "alt_km": 749.937051528831, "timestamp": "2025-12-08T03:50:07.389395+00:00", "meta": {"OBJECT_NAME": "COSMOS 2251 DEB", "OBJECT_ID": "1993-036GD", "EPOCH": "2025-12-07T02:16:13.834848", "MEAN_MOTION": 14.41209535, "ECCENTRICITY": 0.00234557, "INCLINATION": 74.0423, "RA_OF_ASC_NODE": 200.8558, "ARG_OF_PERICENTER": 336.1891, "MEAN_ANOMALY": 186.6598, "EPHEMERIS_TYPE": 0, "CLASSIFICATION_TYPE": "U", "NORAD_CAT_ID": 33994, "ELEMENT_SET_NO": 999, "REV_AT_EPOCH": 88338, "BSTAR": 0.00016011965, "MEAN_MOTION_DOT": 4.92e-06, "MEAN_MOTION_DDOT": 0}, "tle": {"line1": "1 33994U 93036GD  25341.09460457  .00000492  00000+0  16012-3 0  9996", "line2": "2 33994  74.0423 200.8558 0023455 336.1891 186.6598 14.41209535883385"}}, "geometry": {"type": "Point", "coordinates": [156.9670955892073, -66.81465292570915]}}, {"type": "Feature", "properties": {"norad_id": 33995, "name": "COSMOS 2251 DEB", "group": "cosmos-2251-debris", "lat": 65.11329115466741, "lon": -90.29615805097862, "alt_km": 733.2575844926123, "timestamp": "2025-12-08T03:50:07.389405+00:00", "meta": {"OBJECT_NAME": "COSMOS 2251 DEB", "OBJECT_ID": "1993-036GE", "EPOCH": "2025-12-06T19:31:54.930144", "MEAN_MOTION": 14.34721837, "ECCENTRICITY": 0.00605998, "INCLINATION": 74.061, "RA_OF_ASC_NODE": 130.1919, "ARG_OF_PERICENTER": 146.2222, "MEAN_ANOMALY": 214.2815, "EPHEMERIS_TYPE": 0, "CLASSIFICATION_TYPE": "U", "NORAD_CAT_ID": 33995, "ELEMENT_SET_NO": 999, "REV_AT_EPOCH": 87434, "BSTAR": 0.0018355082, "MEAN_MOTION_DOT": 5.286e-05, "MEAN_MOTION_DDOT": 0}, "tle": {"line1": "1 33995U 93036GE  25340.81383021  .00005286  00000+0  18355-2 0  9994", "line2": "2 33995  74.0610 130.1919 0060599 146.2222 214.2815 14.34721837874340"}}, "geometry": {"type": "Point", "coordinates": [-90.29615805097862, 65.11329115466741]}}, {"type": "Feature", "properties": {"norad_id": 33999, "name": "COSMOS 2251 DEB", "group": "cosmos-2251-debris", "lat": -8.215256453163041, "lon": 62.29735317431715, "alt_km": 603.3693326107068, "timestamp": "2025-12-08T03:50:07.389415+00:00", "meta": {"OBJECT_NAME": "COSMOS 2251 DEB", "OBJECT_ID": "1993-036GJ", "EPOCH": "2025-12-06T23:28:19.726176", "MEAN_MOTION": 14.83168777, "ECCENTRICITY": 0.00445882, "INCLINATION": 73.9197, "RA_OF_ASC_NODE": 242.2657, "ARG_OF_PERICENTER": 139.5537, "MEAN_ANOMALY": 220.897, "EPHEMERIS_TYPE": 0, "CLASSIFICATION_TYPE": "U", "NORAD_CAT_ID": 33999, "ELEMENT_SET_NO": 999, "REV_AT_EPOCH": 89165, "BSTAR": 0.0021717344, "MEAN_MOTION_DOT": 0.00018048, "MEAN_MOTION_DDOT": 0}, "tle": {"line1": "1 33999U 93036GJ  25340.97800609  .00018048  00000+0  21717-2 0  9997", "line2": "2 33999  73.9197 242.2657 0044588 139.5537 220.8970 14.83168777891650"}}, "geometry": {"type": "Point", "coordinates": [62.29735317431715, -8.215256453163041]}}]}